[{"OBJECT_NAME":"STARLINK-35784","OBJECT_ID":"2025-298U","EPOCH":"2026-03-09T22:31:12.185472","MEAN_MOTION":14.99157284,"ECCENTRICITY":0.00025226,"INCLINATION":70.0036,"RA_OF_ASC_NODE":13.8718,"ARG_OF_PERICENTER":255.9225,"MEAN_ANOMALY":104.1654,"EPHEMERIS_TYPE":0,"CLASSIFICATION_TYPE":"U","NORAD_CAT_ID":67093,"ELEMENT_SET_NO":999,"REV_AT_EPOCH":1325,"BSTAR":0.00048528132,"MEAN_MOTION_DOT":5.827e-5,"MEAN_MOTION_DDOT":0},{"OBJECT_NAME":"OBJECT F","OBJECT_ID":"2025-026F","EPOCH":"2026-03-09T16:35:22.568352","MEAN_MOTION":14.96835273,"ECCENTRICITY":0.001234,"INCLINATION":81.996,"RA_OF_ASC_NODE":175.2789,"ARG_OF_PERICENTER":38.1083,"MEAN_ANOMALY":322.1008,"EPHEMERIS_TYPE":0,"CLASSIFICATION_TYPE":"U","NORAD_CAT_ID":63330,"ELEMENT_SET_NO":999,"REV_AT_EPOCH":5316,"BSTAR":0.00045702,"MEAN_MOTION_DOT":5.266e-5,"MEAN_MOTION_DDOT":0}]
